OBJECT_NAME,OBJECT_ID,EPOCH,MEAN_MOTION,ECCENTRICITY,INCLINATION,RA_OF_ASC_NODE,ARG_OF_PERICENTER,MEAN_ANOMALY,EPHEMERIS_TYPE,CLASSIFICATION_TYPE,NORAD_CAT_ID,ELEMENT_SET_NO,REV_AT_EPOCH,BSTAR,MEAN_MOTION_DOT,MEAN_MOTION_DDOT
GONETS-M 15,2019-096B,2026-06-07T21:37:08.363136,12.42871158,.0014491,82.5251,90.8576,192.2515,167.8214,0,U,44906,999,29249,.35642E-3,.59E-6,0
GONETS-M 16,2019-096C,2026-06-07T20:19:12.168768,12.42891654,.0009627,82.5197,89.8478,237.2362,122.7790,0,U,44907,999,29247,.45049E-3,.72E-6,0
RS-44 & BREEZE-KM R/B,2019-096E,2026-06-07T18:42:51.741792,12.79748581,.0217747,82.5218,345.9576,166.1090,194.6135,0,U,44909,999,30114,.21197E-5,.13E-6,0
JILIN-1 KUANFU 01,2020-003A,2026-06-07T17:56:25.044576,15.10675055,.0009067,97.5028,232.8874,344.0899,16.0044,0,U,45016,999,35390,.24913E-3,.4063E-4,0
XINGYUN-2 01,2020-028A,2026-06-07T19:25:32.464992,15.11765426,.0007519,97.4869,151.3965,230.0627,129.9944,0,U,45602,999,33342,.10247E-3,.1685E-4,0
XINGYUN-2 02,2020-028B,2026-06-07T20:27:41.980608,15.11498343,.0009542,97.5076,165.0083,311.2305,48.8103,0,U,45603,999,33342,.74788E-4,.1203E-4,0
HAIYANG-1D,2020-036A,2026-06-07T20:00:27.800640,14.34170134,.0002859,98.4556,100.7171,150.0273,210.1076,0,U,45721,999,31363,.53545E-4,.107E-5,0
M2 PATHFINDER,2020-037E,2026-06-07T11:17:39.085728,15.04635174,.0011555,97.8160,349.5929,179.3354,180.7889,0,U,45727,999,32403,.23446E-3,.3235E-4,0
GAOFEN DUOMO (GFDM),2020-042A,2026-06-07T20:35:03.488928,14.76866898,.0012411,97.7745,219.0828,100.9759,259.2848,0,U,45856,999,31963,.10727E-3,.705E-5,0
ZIYUAN 3-03 (ZY 3-03),2020-051A,2026-06-07T20:16:55.342272,15.21458590,.0004201,97.2832,226.8723,359.7650,0.3584,0,U,45939,999,32592,.19952E-3,.4417E-4,0
NEMO-HD,2020-061F,2026-06-07T20:45:39.175200,15.44407110,.0002624,97.1921,220.9133,90.7534,269.4015,0,U,46277,999,32054,.25596E-3,.11746E-3,0
NAPA-1,2020-061BA,2026-06-07T20:11:50.858304,15.66765027,.0001204,97.2463,232.7227,159.5231,200.6078,0,U,46320,999,32027,.67152E-3,.70997E-3,0
JILIN-1 GAOFEN 3E,2020-065D,2026-06-07T19:28:09.505632,15.62523258,.0012268,97.2256,211.2105,186.9515,173.1576,0,U,46457,999,31829,.66349E-3,.59465E-3,0
JILIN-1 GAOFEN 3F,2020-065E,2026-06-07T19:41:15.077760,15.59961256,.0013874,97.2212,208.5990,176.3553,183.7807,0,U,46458,999,31824,.61294E-3,.49767E-3,0
JILIN-1 GAOFEN 3G,2020-065F,2026-06-07T20:16:11.255808,15.69561822,.0010219,97.2283,215.2767,94.6932,265.5498,0,U,46459,999,31847,.7108E-3,.84571E-3,0
JILIN-1 GAOFEN 3H,2020-065G,2026-06-07T19:07:07.636224,15.66437123,.0005117,97.2222,211.6098,38.8479,321.3149,0,U,46460,999,31841,.68287E-3,.713E-3,0
HAIYANG-2C,2020-066A,2026-06-07T20:09:15.621696,13.83374460,.0009259,65.9968,238.5568,238.4052,121.6113,0,U,46469,999,28820,.52667E-4,-.23E-6,0
HJ-2A,2020-067A,2026-06-07T19:31:03.997344,14.76600669,.0002316,97.8822,237.4071,318.2086,41.8947,0,U,46478,999,30687,.8908E-4,.572E-5,0
HJ-2B,2020-067B,2026-06-07T20:24:27.093312,14.76546153,.000116,97.8886,238.4571,89.3593,270.7750,0,U,46479,999,30688,.10022E-3,.649E-5,0
GONETS-M 17,2020-068A,2026-06-07T18:59:17.590848,12.42872327,.0023367,82.4993,353.3489,57.0633,303.2690,0,U,46486,999,25799,-.67611E-3,-.84E-6,0
GONETS-M 18,2020-068B,2026-06-07T20:02:52.611360,12.42872580,.0020628,82.4947,352.4431,53.6942,306.6039,0,U,46487,999,25798,-.3081E-3,-.33E-6,0
GONETS-M 19,2020-068C,2026-06-07T19:27:40.253184,12.42891511,.0014458,82.4971,352.9068,68.4567,291.8052,0,U,46488,999,25808,-.54718E-3,-.66E-6,0
DEKART,2020-068H,2026-06-07T20:00:05.757408,15.37138605,.0007554,97.8746,167.4351,327.6807,32.3972,0,U,46493,999,31433,.38028E-3,.13756E-3,0
NORBI,2020-068J,2026-06-07T20:24:22.584096,15.48062446,.0004556,97.8635,173.9950,293.9501,66.1270,0,U,46494,999,31476,.47215E-3,.24679E-3,0
SALSAT,2020-068K,2026-06-07T17:25:36.863040,15.29663376,.0008931,97.8853,161.2159,346.1637,13.9356,0,U,46495,999,31391,.29512E-3,.8408E-4,0
ICEYE-X6,2020-068M,2026-06-07T19:31:37.009056,15.04467735,.0008533,98.0963,152.0379,116.5336,243.6764,0,U,46497,999,31182,.23629E-3,.324E-4,0
NETSAT-4,2020-068U,2026-06-07T12:45:05.367168,15.43543393,.0005131,97.8612,165.9983,17.0462,343.0956,0,U,46504,999,31428,.40714E-3,.18205E-3,0
NETSAT-3,2020-068V,2026-06-07T12:43:22.985760,15.42345848,.0005514,97.8661,164.2259,34.7991,325.3614,0,U,46505,999,31419,.42476E-3,.18249E-3,0
