GONETS-M 15             
1 44906U 19096B   26158.90079124  .00000059  00000+0  35642-3 0  9998
2 44906  82.5251  90.8576 0014491 192.2515 167.8214 12.42871158292491
GONETS-M 16             
1 44907U 19096C   26158.84666862  .00000072  00000+0  45049-3 0  9990
2 44907  82.5197  89.8478 0009627 237.2362 122.7790 12.42891654292475
RS-44 & BREEZE-KM R/B   
1 44909U 19096E   26158.77976553  .00000013  00000+0  21197-5 0  9990
2 44909  82.5218 345.9576 0217747 166.1090 194.6135 12.79748581301144
JILIN-1 KUANFU 01       
1 45016U 20003A   26158.74751209  .00004063  00000+0  24913-3 0  9992
2 45016  97.5028 232.8874 0009067 344.0899  16.0044 15.10675055353902
XINGYUN-2 01            
1 45602U 20028A   26158.80940353  .00001685  00000+0  10247-3 0  9999
2 45602  97.4869 151.3965 0007519 230.0627 129.9944 15.11765426333425
XINGYUN-2 02            
1 45603U 20028B   26158.85256922  .00001203  00000+0  74788-4 0  9994
2 45603  97.5076 165.0083 0009542 311.2305  48.8103 15.11498343333420
HAIYANG-1D              
1 45721U 20036A   26158.83365510  .00000107  00000+0  53545-4 0  9996
2 45721  98.4556 100.7171 0002859 150.0273 210.1076 14.34170134313638
M2 PATHFINDER           
1 45727U 20037E   26158.47059127  .00003235  00000+0  23446-3 0  9998
2 45727  97.8160 349.5929 0011555 179.3354 180.7889 15.04635174324037
GAOFEN DUOMO (GFDM)     
1 45856U 20042A   26158.85767927  .00000705  00000+0  10727-3 0  9990
2 45856  97.7745 219.0828 0012411 100.9759 259.2848 14.76866898319632
ZIYUAN 3-03 (ZY 3-03)   
1 45939U 20051A   26158.84508498  .00004417  00000+0  19952-3 0  9990
2 45939  97.2832 226.8723 0004201 359.7650   0.3584 15.21458590325926
NEMO-HD                 
1 46277U 20061F   26158.86503675  .00011746  00000+0  25596-3 0  9995
2 46277  97.1921 220.9133 0002624  90.7534 269.4015 15.44407110320547
NAPA-1                  
1 46320U 20061BA  26158.84156086  .00070997  00000+0  67152-3 0  9999
2 46320  97.2463 232.7227 0001204 159.5231 200.6078 15.66765027320278
JILIN-1 GAOFEN 3E       
1 46457U 20065D   26158.81122113  .00059465  00000+0  66349-3 0  9999
2 46457  97.2256 211.2105 0012268 186.9515 173.1576 15.62523258318297
JILIN-1 GAOFEN 3F       
1 46458U 20065E   26158.82031340  .00049767  00000+0  61294-3 0  9990
2 46458  97.2212 208.5990 0013874 176.3553 183.7807 15.59961256318249
JILIN-1 GAOFEN 3G       
1 46459U 20065F   26158.84457472  .00084571  00000+0  71080-3 0  9997
2 46459  97.2283 215.2767 0010219  94.6932 265.5498 15.69561822318474
JILIN-1 GAOFEN 3H       
1 46460U 20065G   26158.79661616  .00071300  00000+0  68287-3 0  9991
2 46460  97.2222 211.6098 0005117  38.8479 321.3149 15.66437123318414
HAIYANG-2C              
1 46469U 20066A   26158.83976414 -.00000023  00000+0  52667-4 0  9992
2 46469  65.9968 238.5568 0009259 238.4052 121.6113 13.83374460288204
HJ-2A                   
1 46478U 20067A   26158.81324071  .00000572  00000+0  89080-4 0  9994
2 46478  97.8822 237.4071 0002316 318.2086  41.8947 14.76600669306873
HJ-2B                   
1 46479U 20067B   26158.85031358  .00000649  00000+0  10022-3 0  9996
2 46479  97.8886 238.4571 0001160  89.3593 270.7750 14.76546153306888
GONETS-M 17             
1 46486U 20068A   26158.79117582 -.00000084  00000+0 -67611-3 0  9993
2 46486  82.4993 353.3489 0023367  57.0633 303.2690 12.42872327257998
GONETS-M 18             
1 46487U 20068B   26158.83533115 -.00000033  00000+0 -30810-3 0  9998
2 46487  82.4947 352.4431 0020628  53.6942 306.6039 12.42872580257981
GONETS-M 19             
1 46488U 20068C   26158.81088256 -.00000066  00000+0 -54718-3 0  9997
2 46488  82.4971 352.9068 0014458  68.4567 291.8052 12.42891511258088
DEKART                  
1 46493U 20068H   26158.83339997  .00013756  00000+0  38028-3 0  9990
2 46493  97.8746 167.4351 0007554 327.6807  32.3972 15.37138605314339
NORBI                   
1 46494U 20068J   26158.85026139  .00024679  00000+0  47215-3 0  9998
2 46494  97.8635 173.9950 0004556 293.9501  66.1270 15.48062446314763
SALSAT                  
1 46495U 20068K   26158.72612110  .00008408  00000+0  29512-3 0  9997
2 46495  97.8853 161.2159 0008931 346.1637  13.9356 15.29663376313918
ICEYE-X6                
1 46497U 20068M   26158.81362279  .00003240  00000+0  23629-3 0  9999
2 46497  98.0963 152.0379 0008533 116.5336 243.6764 15.04467735311827
NETSAT-4                
1 46504U 20068U   26158.53131212  .00018205  00000+0  40714-3 0  9999
2 46504  97.8612 165.9983 0005131  17.0462 343.0956 15.43543393314283
NETSAT-3                
1 46505U 20068V   26158.53012715  .00018249  00000+0  42476-3 0  9991
2 46505  97.8661 164.2259 0005514  34.7991 325.3614 15.42345848314192
